{
    "links": {
        "self": "http://www.neowsapp.com/rest/v1/neo/3843783?api_key=iIulBulltgU6a56xZRHN4H3l9WmuAYTsLGpBGhQ2"
    },
    "id": "3843783",
    "neo_reference_id": "3843783",
    "name": "(2019 RE1)",
    "designation": "2019 RE1",
    "nasa_jpl_url": "http://ssd.jpl.nasa.gov/sbdb.cgi?sstr=3843783",
    "absolute_magnitude_h": 28.9,
    "estimated_diameter": {
        "kilometers": {
            "estimated_diameter_min": 0.004411182,
            "estimated_diameter_max": 0.0098637028
        },
        "meters": {
            "estimated_diameter_min": 4.411182,
            "estimated_diameter_max": 9.8637028131
        },
        "miles": {
            "estimated_diameter_min": 0.0027409806,
            "estimated_diameter_max": 0.0061290189
        },
        "feet": {
            "estimated_diameter_min": 14.4723823528,
            "estimated_diameter_max": 32.3612307372
        }
    },
    "is_potentially_hazardous_asteroid": false,
    "close_approach_data": [
        {
            "close_approach_date": "2019-09-02",
            "close_approach_date_full": "2019-Sep-02 07:04",
            "epoch_date_close_approach": 1567407840000,
            "relative_velocity": {
                "kilometers_per_second": "7.4417886524",
                "kilometers_per_hour": "26790.4391488048",
                "miles_per_hour": "16646.5370366559"
            },
            "miss_distance": {
                "astronomical": "0.0098295974",
                "lunar": "3.8237133886",
                "kilometers": "1470486.833997538",
                "miles": "913718.1489725044"
            },
            "orbiting_body": "Earth"
        },
        {
            "close_approach_date": "2021-06-05",
            "close_approach_date_full": "2021-Jun-05 10:46",
            "epoch_date_close_approach": 1622889960000,
            "relative_velocity": {
                "kilometers_per_second": "12.8857280473",
                "kilometers_per_hour": "46388.6209702717",
                "miles_per_hour": "28824.0850690002"
            },
            "miss_distance": {
                "astronomical": "0.2148752597",
                "lunar": "83.5864760233",
                "kilometers": "32144881.166816839",
                "miles": "19973902.9548728182"
            },
            "orbiting_body": "Earth"
        },
        {
            "close_approach_date": "2021-10-15",
            "close_approach_date_full": "2021-Oct-15 08:06",
            "epoch_date_close_approach": 1634285160000,
            "relative_velocity": {
                "kilometers_per_second": "3.9268572003",
                "kilometers_per_hour": "14136.6859210586",
                "miles_per_hour": "8783.9868713378"
            },
            "miss_distance": {
                "astronomical": "0.4655562064",
                "lunar": "181.1013642896",
                "kilometers": "69646216.842720368",
                "miles": "43276152.4042143584"
            },
            "orbiting_body": "Earth"
        },
        {
            "close_approach_date": "2102-10-02",
            "close_approach_date_full": "2102-Oct-02 20:53",
            "epoch_date_close_approach": 4189265580000,
            "relative_velocity": {
                "kilometers_per_second": "17.1708828766",
                "kilometers_per_hour": "61815.178355692",
                "miles_per_hour": "38409.5479066243"
            },
            "miss_distance": {
                "astronomical": "0.3403712023",
                "lunar": "132.4043976947",
                "kilometers": "50918806.873419101",
                "miles": "31639479.4489855538"
            },
            "orbiting_body": "Earth"
        }
    ],
    "orbital_data": {
        "orbit_id": "1",
        "orbit_determination_date": "2019-09-06 01:42:09",
        "first_observation_date": "2019-09-05",
        "last_observation_date": "2019-09-06",
        "data_arc_in_days": 1,
        "observations_used": 16,
        "orbit_uncertainty": "7",
        "minimum_orbit_intersection": ".00624498",
        "jupiter_tisserand_invariant": "4.365",
        "epoch_osculation": "2459000.5",
        "eccentricity": ".3697325146250866",
        "semi_major_axis": "1.551893400202811",
        "inclination": "4.382500883827471",
        "ascending_node_longitude": "341.3579505299954",
        "orbital_period": "706.1407201725081",
        "perihelion_distance": ".9781079509157499",
        "perihelion_argument": "327.1112168574628",
        "aphelion_distance": "2.125678849489872",
        "perihelion_time": "2458702.620578291283",
        "mean_anomaly": "151.8629201682923",
        "mean_motion": ".5098133979754815",
        "equinox": "J2000",
        "orbit_class": {
            "orbit_class_type": "APO",
            "orbit_class_description": "Near-Earth asteroid orbits which cross the Earth’s orbit similar to that of 1862 Apollo",
            "orbit_class_range": "a (semi-major axis) > 1.0 AU; q (perihelion) < 1.017 AU"
        }
    },
    "is_sentry_object": false
}